[{"OBJECT_NAME":"KKS-1 (KISEKI)","OBJECT_ID":"2009-002H","EPOCH":"2026-03-09T22:29:35.909952","MEAN_MOTION":14.82831361,"ECCENTRICITY":0.00064814,"INCLINATION":98.118,"RA_OF_ASC_NODE":349.8365,"ARG_OF_PERICENTER":249.6334,"MEAN_ANOMALY":110.4183,"EPHEMERIS_TYPE":0,"CLASSIFICATION_TYPE":"U","NORAD_CAT_ID":33499,"ELEMENT_SET_NO":999,"REV_AT_EPOCH":92148,"BSTAR":0.00028879278,"MEAN_MOTION_DOT":2.283e-5,"MEAN_MOTION_DDOT":0},{"OBJECT_NAME":"COSMOS 2251 DEB","OBJECT_ID":"1993-036AQ","EPOCH":"2026-03-09T23:00:35.016768","MEAN_MOTION":14.81930563,"ECCENTRICITY":0.00231452,"INCLINATION":74.0303,"RA_OF_ASC_NODE":269.7566,"ARG_OF_PERICENTER":315.1256,"MEAN_ANOMALY":167.4806,"EPHEMERIS_TYPE":0,"CLASSIFICATION_TYPE":"U","NORAD_CAT_ID":33799,"ELEMENT_SET_NO":999,"REV_AT_EPOCH":90102,"BSTAR":0.0021188422,"MEAN_MOTION_DOT":0.00016871,"MEAN_MOTION_DDOT":0}]
